{
  "norad_id": 60577,
  "name": "LEMUR-2-LLOYD",
  "history": [
    {
      "epoch": "2026-05-04T19:14:23.640864Z",
      "apogee_km": 542.6192402542847,
      "perigee_km": 539.4945322952426,
      "latitude_deg": 3.136686910837986e-05,
      "longitude_deg": 54.65381210306923,
      "height_km": 543.2856374941179,
      "semi_major_axis_km": 6919.193886274764,
      "eccentricity": 0.0002258,
      "inclination_deg": 97.6743,
      "raan_deg": 205.9381,
      "arg_perigee_deg": 302.543,
      "mean_anomaly_deg": 57.558,
      "mean_motion_rev_day": 15.08410377
    },
    {
      "epoch": "2026-05-05T19:07:15.164256Z",
      "apogee_km": 542.5992185827145,
      "perigee_km": 539.3749067695071,
      "latitude_deg": 6.916940000049283e-05,
      "longitude_deg": 56.45266551086332,
      "height_km": 543.3569657739316,
      "semi_major_axis_km": 6919.124062676111,
      "eccentricity": 0.000233,
      "inclination_deg": 97.6737,
      "raan_deg": 206.9324,
      "arg_perigee_deg": 295.7187,
      "mean_anomaly_deg": 64.3801,
      "mean_motion_rev_day": 15.0843321
    },
    {
      "epoch": "2026-05-06T19:00:05.573088Z",
      "apogee_km": 542.5965408133188,
      "perigee_km": 539.2712353445086,
      "latitude_deg": -3.420205290307843e-05,
      "longitude_deg": 58.25609452681936,
      "height_km": 543.4316182785328,
      "semi_major_axis_km": 6919.070888078913,
      "eccentricity": 0.0002403,
      "inclination_deg": 97.6732,
      "raan_deg": 207.9266,
      "arg_perigee_deg": 290.1238,
      "mean_anomaly_deg": 69.9731,
      "mean_motion_rev_day": 15.08450599
    },
    {
      "epoch": "2026-05-07T18:52:55.257024Z",
      "apogee_km": 542.5985864642007,
      "perigee_km": 539.1902715822644,
      "latitude_deg": 1.2009802201290035e-05,
      "longitude_deg": 60.062632458780975,
      "height_km": 543.5332247246748,
      "semi_major_axis_km": 6919.031429023233,
      "eccentricity": 0.0002463,
      "inclination_deg": 97.673,
      "raan_deg": 208.9209,
      "arg_perigee_deg": 284.6556,
      "mean_anomaly_deg": 75.4399,
      "mean_motion_rev_day": 15.08463503
    },
    {
      "epoch": "2026-05-08T15:34:41.611008Z",
      "apogee_km": 542.5982246536059,
      "perigee_km": 539.1013687265577,
      "latitude_deg": 1.6743400238504393e-05,
      "longitude_deg": 109.63112453825963,
      "height_km": 543.6151487607575,
      "semi_major_axis_km": 6918.986796690081,
      "eccentricity": 0.0002527,
      "inclination_deg": 97.6732,
      "raan_deg": 209.7825,
      "arg_perigee_deg": 280.0386,
      "mean_anomaly_deg": 80.0557,
      "mean_motion_rev_day": 15.08478099
    },
    {
      "epoch": "2026-05-09T18:38:31.917120Z",
      "apogee_km": 542.5431684988589,
      "perigee_km": 539.0504907016766,
      "latitude_deg": -4.8685239961464137e-05,
      "longitude_deg": 63.68694407328337,
      "height_km": 543.7459195613088,
      "semi_major_axis_km": 6918.933829600268,
      "eccentricity": 0.0002524,
      "inclination_deg": 97.6736,
      "raan_deg": 210.9094,
      "arg_perigee_deg": 273.9772,
      "mean_anomaly_deg": 86.1167,
      "mean_motion_rev_day": 15.08495421
    },
    {
      "epoch": "2026-05-10T18:31:18.947712Z",
      "apogee_km": 542.4846584806592,
      "perigee_km": 539.02521251291,
      "latitude_deg": 3.724988284362686e-05,
      "longitude_deg": 65.50486484479623,
      "height_km": 543.8557866896922,
      "semi_major_axis_km": 6918.891935496784,
      "eccentricity": 0.00025,
      "inclination_deg": 97.674,
      "raan_deg": 211.904,
      "arg_perigee_deg": 268.9855,
      "mean_anomaly_deg": 91.1087,
      "mean_motion_rev_day": 15.08509122
    },
    {
      "epoch": "2026-05-11T15:13:03.114048Z",
      "apogee_km": 542.4232084389341,
      "perigee_km": 539.0191302196245,
      "latitude_deg": 3.07974906436083e-05,
      "longitude_deg": 115.08270084238812,
      "height_km": 543.9660819345031,
      "semi_major_axis_km": 6918.858169329279,
      "eccentricity": 0.000246,
      "inclination_deg": 97.6744,
      "raan_deg": 212.7658,
      "arg_perigee_deg": 264.1083,
      "mean_anomaly_deg": 95.9865,
      "mean_motion_rev_day": 15.08520165
    },
    {
      "epoch": "2026-05-12T15:05:48.844320Z",
      "apogee_km": 542.3762974736464,
      "perigee_km": 538.9929936889575,
      "latitude_deg": -5.235457054208273e-05,
      "longitude_deg": 116.90587860762155,
      "height_km": 544.0902485680865,
      "semi_major_axis_km": 6918.821645581302,
      "eccentricity": 0.0002445,
      "inclination_deg": 97.6747,
      "raan_deg": 213.7602,
      "arg_perigee_deg": 258.564,
      "mean_anomaly_deg": 101.5313,
      "mean_motion_rev_day": 15.0853211
    },
    {
      "epoch": "2026-05-13T05:25:27.955200Z",
      "apogee_km": 542.339980421446,
      "perigee_km": 538.9912799484364,
      "latitude_deg": 6.938947991554594e-05,
      "longitude_deg": -97.99891015153301,
      "height_km": 544.1691832688767,
      "semi_major_axis_km": 6918.80263018494,
      "eccentricity": 0.000242,
      "inclination_deg": 97.6749,
      "raan_deg": 214.3568,
      "arg_perigee_deg": 254.9978,
      "mean_anomaly_deg": 105.0983,
      "mean_motion_rev_day": 15.08538329
    }
  ]
}